[Satellite]
VERSION=1.1
NAME=RHESSI
NICKNAME=RHESSI
TLE1=1 27370U 02004A   22342.11588961  .00057269  00000+0  85782-3 0  9998
TLE2=2 27370  38.0298 352.4110 0010074 212.2532 147.7631 15.53890466153540
STATUS=0
